#dP2019  6 16  0  0  0.00000000      96 __u+U IGS08 FIT  IAC
## 2058      0.00000000   900.00000000 58650 0.0000000000000
+   96   C01C02C03C04C05C06C07C08C09C10C11C12C13C14C16E01E02
+        E03E04E05E07E08E09E11E12E13E14E15E18E19E21E24E25E26
+        E27E30E31E33E36G01G02G03G05G06G07G08G09G10G11G12G13
+        G14G15G16G17G18G19G20G21G22G23G24G25G26G27G28G29G30
+        G31G32J01J02J03R01R02R03R04R05R07R08R09R10R11R13R14
+        R15R16R17R18R19R20R21R22R23R24R26  0  0  0  0  0  0
++        13 12 13 13 13  8  8  8  8  8  7  7  9  7  8  4  4
++         4  4  4  4  4  4  4  4  4  4  4  4  5  4  4  4  4
++         4  4  4  5  5  3  3  3  3  3  3  3  3  3  3  3  3
++         3  3  3  3  3  4  3  3  3  3  3  3  3  3  3  3  3
++         3  3  8  8  8  5  5  5  5  5  5  5  5  5  7  6  5
++         5  6  5  5  6  6  5  5  5  6  8  0  0  0  0  0  0
%c M  cc GPS ccc cccc cccc cccc cccc ccccc ccccc ccccc ccccc
%c cc cc ccc ccc cccc cccc cccc cccc ccccc ccccc ccccc ccccc
%f  1.2500000  1.025000000  0.00000000000  0.000000000000000
%f  0.0000000  0.000000000  0.00000000000  0.000000000000000
%i    0    0    0    0      0      0      0      0         0
%i    0    0    0    0      0      0      0      0         0
/* INFORMATION & ANALYSIS CENTER (IAC)            FINAL DATA
/* S/V CLOCKS ARE ALIGNED TO GPS & GLONASS TIME RESPECTIVELY
/* USING THE BROADCAST EPHEMERIS                            
/* PCV:IGS14_2056 OL/AL:FES2004  NONE     YN ORB:CoN CLK:CoN
*  2019 06 16  8  0  0.00000000
PC01 -32346.781594  27026.673895    237.187776    719.442198
PC02   4367.225162  41944.366130    599.276491     93.524255
PC03 -14860.656287  39445.589785    658.498092    547.203309
PC04 -39616.478381  14410.031998    394.405031   -202.320393
PC05  21870.024245  36038.574264    359.011767   -261.541613
PC06 -24597.808238  25346.408452 -22958.873896    895.059697
PC07 -14888.633779  37289.914441 -11919.786064    140.333988
PC08  -6331.861531  22681.534181  35104.072917    165.422793
PC09  -7504.588582  25982.935634 -32189.048276    845.935170
PC10  -3198.385053  41702.719325   3353.911354   -848.987749
PC11 -15405.871961  11782.196902  20090.991973    274.462930
PC12 -27246.665454  -4666.886778  -3436.564711    770.009140
PC13   6945.690065  30487.994835  28453.662461   -780.654087
PC14 -20086.453744  16459.701931  10338.927986    563.463703
PC16 -21070.618420  26057.043403 -25651.052000   -917.122327
PE01  -6398.232588  26605.984717 -11279.030170   -627.282031
PE02   6359.011963 -26639.375332  11223.109264     65.055398
PE03  16048.128574 -21141.221869  13127.181281   -177.919348
PE04   3569.006534  17554.784706 -23551.050510   -303.897762
PE05  26415.296945 -12350.326819  -5089.191122   -474.640050
PE07 -21280.963753  -3637.416354  20259.327204   -208.255471
PE08  -3738.804137 -17370.424019  23686.316510   6338.990488
PE09  21283.026923   3302.835673 -20299.028418   6407.260756
PE11  26639.843020  12825.477241  -1157.799761   5675.748666
PE12  13983.120897  19835.232255  16931.544783   6344.071159
PE13 -26677.302282 -12797.397398   1008.291995    388.605293
PE14 -26165.228165  -6957.732308 -13435.716528   -607.304280
PE15 -14459.981202 -19701.684262 -16701.962507    906.641086
PE18  26789.919431  -4916.016530  -1279.511200   -703.767903
PE19 -17646.870801  20771.622512 -11535.989773     -5.742406
PE21 -15175.171700   9490.467663 -23578.472030   -539.336164
PE24  15035.118311  12926.049884  21968.835927   6025.884136
PE25  15187.239804  -9437.451272  23593.836939   1771.610752
PE26 -23345.533790   1582.042754  18130.139501   4447.626961
PE27 -14994.180756 -13159.527593 -21867.564325    448.199586
PE30  -6025.512932 -27977.471004  -7563.476208   4786.158015
PE31   6025.167337  28030.166615   7343.975972   -465.670830
PE33  -6276.598194  15082.194417  24686.437568   -469.942645
PE36  23292.459924  -1633.364496 -18186.410360    699.098846
PG01 -21071.640097 -12020.416681  10998.391717    -42.436640
PG02  12690.323511  21570.539406   9720.777594   -238.519428
PG03 -14746.262267  -3560.337103  21759.265682    185.360280
PG05   4508.825731  21876.107239 -14335.654610      0.513734
PG06    202.641822  18842.114916  18745.412713    176.501536
PG07 -17590.625559   1290.220820 -19734.830352    -45.488490
PG08 -19634.300853  -6941.782349 -16576.195026   -147.626051
PG09 -25022.498865   8362.609548  -3150.222953    390.581136
PG10  11307.629507 -23195.636589  -5759.944765     14.506645
PG11 -24786.018333  -9017.419351    985.758930   -583.355034
PG12  13179.054112   6465.817629  21923.205458    232.685590
PG13  10723.658734  13154.246238 -20551.764160    -58.826544
PG14   5540.498802 -15664.622647  21008.122142    -75.850816
PG15  21010.115155   5547.619997 -15791.999926   -306.749774
PG16  -2184.956765 -21564.552541 -15232.870256    -48.496117
PG17 -14426.215060  14268.333439  17498.834420     72.576851
PG18 -19868.837706 -17570.334046   1885.337516     62.331035
PG19  -7689.508700  14711.587404  20445.231645   -305.965301
PG20  14090.154746 -17191.337669 -14526.184265    525.412720
PG21  13629.757536  -7492.960790 -20721.860593   -172.259239
PG22 -12968.475145 -11579.061973  20332.415789   -717.746787
PG23 -25160.289385   -813.326394   9417.516610   -181.551424
PG24  21782.605328  13368.484902   7675.210154    -67.525508
PG25  16238.799274  -8081.639608  19099.334169   -766.104422
PG26   3397.608937 -25733.773962  -5180.948656    228.197321
PG27  -7982.032102 -13200.274244 -21767.861412   -159.250326
PG28 -12976.804085  22511.466095  -5137.093592    767.422264
PG29  26286.659395  -3799.054262    579.129928    175.172041
PG30 -10252.452862  11955.196462 -21351.609191   -124.861675
PG31   -803.905083 -19658.145682  17625.808468     30.749369
PG32  12723.368418 -15567.034311  17355.842525    -41.524018
PJ01 -32827.510153  25768.843849  10911.560023   -287.154027
PJ02 -18384.354183  25909.032983 -23238.013376     -0.352361
PJ03 -29971.184064  26306.572126  18973.510981      0.942410
PR01 -10279.563946  19427.185558 -12922.208789     45.403346
PR02   6623.547801   8759.474787 -22979.801836    373.768329
PR03  17809.993723  -6086.239422 -17148.154012     -3.196756
PR04  18390.823448 -17643.965850   -837.610373    310.311332
PR05   8810.571179 -18651.189797  15008.800187     30.142406
PR07 -18050.337371   6488.541095  16875.657879    -21.851581
PR08 -18693.340418  17281.295159   1727.522224     17.222347
PR09 -11191.886719 -19389.126063 -12280.625668     75.312149
PR10 -11846.582462  -5570.623712 -21930.410956     52.260979
PR11  -6423.172029  14069.555379 -20255.232200    -69.610123
PR13  10762.627387  20555.772945  10569.081452    -24.938801
PR14  12091.131477   5132.535426  21873.080365     39.995619
PR15   6696.410554 -13261.952740  20755.469384    102.562881
PR16  -3026.153690 -24140.834577   7451.637861      8.500751
PR17  24728.980365   5235.656933  -3552.061168    236.146734
PR18  17336.379322  -3724.681074 -18300.684531     -3.085979
PR19    972.818738 -10573.671959 -23197.065141    -36.570742
PR20 -17891.703199 -11928.684757 -13757.270080   -381.406819
PR21 -24655.058603  -4927.180922   4230.556589    -54.272259
PR22 -15261.813745   4940.341420  19877.109897    -24.158456
PR23   5032.134687  11766.123948  22052.687203    234.714811
PR24  19363.126454  11236.516953  12179.933123   -181.592233
PR26 -15849.886039 -11982.457100 -15972.908952     -6.246160
EOF
